KNACKSAT-2              
1 67683U 98067XZ  26176.42038817  .00054321  00000+0  64307-3 0  9992
2 67683  51.6277 253.0425 0008709 252.4154 107.5888 15.60671397 21564
INNOSAT 3 (RS92S0)      
1 64894U 25155U   26176.86685664  .00044791  00000+0  96566-3 0  9999
2 64894  97.4480 148.5733 0007659 131.3915 228.7993 15.44418590 82300
